{
  "type": "FeatureCollection",
  "features": [
    {
      "type": "Feature",
      "properties": {
        "norad_id": 33412,
        "name": "COSMO-SKYMED 3",
        "group": "resource",
        "lat": -49.76960337054946,
        "lon": 18.130308616431968,
        "alt_km": 557.467338365117,
        "timestamp": "2025-12-22T22:44:20.607407+00:00",
        "meta_object_name": "COSMO-SKYMED 3",
        "meta_object_id": "2008-054A",
        "meta_epoch": "2025-12-22T13:44:39.614208",
        "meta_mean_motion": 15.05437898,
        "meta_eccentricity": 0.00171233,
        "meta_inclination": 97.8458,
        "meta_ra_of_asc_node": 207.1303,
        "meta_arg_of_pericenter": 139.5959,
        "meta_mean_anomaly": 220.6542,
        "meta_ephemeris_type": 0,
        "meta_classification_type": "U",
        "meta_norad_cat_id": 33412,
        "meta_element_set_no": 999,
        "meta_rev_at_epoch": 93035,
        "meta_bstar": 0.00030744697,
        "meta_mean_motion_dot": 4.363e-05,
        "meta_mean_motion_ddot": 0,
        "tle_line1": "1 33412U 08054A   25356.57268072  .00004363  00000+0  30745-3 0  9995",
        "tle_line2": "2 33412  97.8458 207.1303 0017123 139.5959 220.6542 15.05437898930358"
      },
      "geometry": {
        "type": "Point",
        "coordinates": [
          18.130308616431968,
          -49.76960337054946
        ]
      }
    },
    {
      "type": "Feature",
      "properties": {
        "norad_id": 33446,
        "name": "YAOGAN-4",
        "group": "resource",
        "lat": 78.49360590654743,
        "lon": 150.08990783960235,
        "alt_km": 622.4803937641764,
        "timestamp": "2025-12-22T22:44:20.607418+00:00",
        "meta_object_name": "YAOGAN-4",
        "meta_object_id": "2008-061A",
        "meta_epoch": "2025-12-22T07:43:11.170848",
        "meta_mean_motion": 14.8270923,
        "meta_eccentricity": 0.00130547,
        "meta_inclination": 97.9196,
        "meta_ra_of_asc_node": 286.3274,
        "meta_arg_of_pericenter": 289.4771,
        "meta_mean_anomaly": 70.5032,
        "meta_ephemeris_type": 0,
        "meta_classification_type": "U",
        "meta_norad_cat_id": 33446,
        "meta_element_set_no": 999,
        "meta_rev_at_epoch": 91945,
        "meta_bstar": 0.00016579598,
        "meta_mean_motion_dot": 1.286e-05,
        "meta_mean_motion_ddot": 0,
        "tle_line1": "1 33446U 08061A   25356.32165707  .00001286  00000+0  16580-3 0  9996",
        "tle_line2": "2 33446  97.9196 286.3274 0013054 289.4771  70.5032 14.82709230919457"
      },
      "geometry": {
        "type": "Point",
        "coordinates": [
          150.08990783960235,
          78.49360590654743
        ]
      }
    },
    {
      "type": "Feature",
      "properties": {
        "norad_id": 33492,
        "name": "GOSAT (IBUKI)",
        "group": "resource",
        "lat": -45.140424612401205,
        "lon": 113.61321594034534,
        "alt_km": 676.2318716345408,
        "timestamp": "2025-12-22T22:44:20.607428+00:00",
        "meta_object_name": "GOSAT (IBUKI)",
        "meta_object_id": "2009-002A",
        "meta_epoch": "2025-12-22T13:07:43.819680",
        "meta_mean_motion": 14.67543127,
        "meta_eccentricity": 9.816e-05,
        "meta_inclination": 98.0771,
        "meta_ra_of_asc_node": 105.014,
        "meta_arg_of_pericenter": 101.8902,
        "meta_mean_anomaly": 258.2412,
        "meta_ephemeris_type": 0,
        "meta_classification_type": "U",
        "meta_norad_cat_id": 33492,
        "meta_element_set_no": 999,
        "meta_rev_at_epoch": 90555,
        "meta_bstar": 0.00014079897,
        "meta_mean_motion_dot": 7.51e-06,
        "meta_mean_motion_ddot": 0,
        "tle_line1": "1 33492U 09002A   25356.54703495  .00000751  00000+0  14080-3 0  9998",
        "tle_line2": "2 33492  98.0771 105.0140 0000981 101.8902 258.2412 14.67543127905553"
      },
      "geometry": {
        "type": "Point",
        "coordinates": [
          113.61321594034534,
          -45.140424612401205
        ]
      }
    },
    {
      "type": "Feature",
      "properties": {
        "norad_id": 35681,
        "name": "DEIMOS-1",
        "group": "resource",
        "lat": -55.274614714180906,
        "lon": 168.35464113776203,
        "alt_km": 653.1787078133384,
        "timestamp": "2025-12-22T22:44:20.607439+00:00",
        "meta_object_name": "DEIMOS-1",
        "meta_object_id": "2009-041A",
        "meta_epoch": "2025-12-22T13:13:25.798656",
        "meta_mean_motion": 14.74966388,
        "meta_eccentricity": 0.00025403,
        "meta_inclination": 97.7149,
        "meta_ra_of_asc_node": 156.6976,
        "meta_arg_of_pericenter": 64.3499,
        "meta_mean_anomaly": 295.7973,
        "meta_ephemeris_type": 0,
        "meta_classification_type": "U",
        "meta_norad_cat_id": 35681,
        "meta_element_set_no": 999,
        "meta_rev_at_epoch": 88084,
        "meta_bstar": 0.00010938921,
        "meta_mean_motion_dot": 6.88e-06,
        "meta_mean_motion_ddot": 0,
        "tle_line1": "1 35681U 09041A   25356.55099304  .00000688  00000+0  10939-3 0  9999",
        "tle_line2": "2 35681  97.7149 156.6976 0002540  64.3499 295.7973 14.74966388880844"
      },
      "geometry": {
        "type": "Point",
        "coordinates": [
          168.35464113776203,
          -55.274614714180906
        ]
      }
    },
    {
      "type": "Feature",
      "properties": {
        "norad_id": 35682,
        "name": "DUBAISAT-1",
        "group": "resource",
        "lat": -46.01790529339219,
        "lon": -60.88033541404441,
        "alt_km": 649.0664477714672,
        "timestamp": "2025-12-22T22:44:20.607451+00:00",
        "meta_object_name": "DUBAISAT-1",
        "meta_object_id": "2009-041B",
        "meta_epoch": "2025-12-22T08:41:09.614112",
        "meta_mean_motion": 14.74629453,
        "meta_eccentricity": 0.00092191,
        "meta_inclination": 97.9798,
        "meta_ra_of_asc_node": 126.9004,
        "meta_arg_of_pericenter": 279.9226,
        "meta_mean_anomaly": 80.0942,
        "meta_ephemeris_type": 0,
        "meta_classification_type": "U",
        "meta_norad_cat_id": 35682,
        "meta_element_set_no": 999,
        "meta_rev_at_epoch": 87903,
        "meta_bstar": 0.00018957661,
        "meta_mean_motion_dot": 1.214e-05,
        "meta_mean_motion_ddot": 0,
        "tle_line1": "1 35682U 09041B   25356.36191683  .00001214  00000+0  18958-3 0  9997",
        "tle_line2": "2 35682  97.9798 126.9004 0009219 279.9226  80.0942 14.74629453879030"
      },
      "geometry": {
        "type": "Point",
        "coordinates": [
          -60.88033541404441,
          -46.01790529339219
        ]
      }
    },
    {
      "type": "Feature",
      "properties": {
        "norad_id": 35931,
        "name": "OCEANSAT-2",
        "group": "resource",
        "lat": 7.532176548347704,
        "lon": 177.6076259423738,
        "alt_km": 907.4139239282604,
        "timestamp": "2025-12-22T22:44:20.607461+00:00",
        "meta_object_name": "OCEANSAT-2",
        "meta_object_id": "2009-051A",
        "meta_epoch": "2025-12-22T13:20:26.513088",
        "meta_mean_motion": 13.99622915,
        "meta_eccentricity": 0.00159688,
        "meta_inclination": 98.2217,
        "meta_ra_of_asc_node": 356.1604,
        "meta_arg_of_pericenter": 19.3059,
        "meta_mean_anomaly": 340.871,
        "meta_ephemeris_type": 0,
        "meta_classification_type": "U",
        "meta_norad_cat_id": 35931,
        "meta_element_set_no": 999,
        "meta_rev_at_epoch": 85462,
        "meta_bstar": -3.5618761e-05,
        "meta_mean_motion_dot": -9e-07,
        "meta_mean_motion_ddot": 0,
        "tle_line1": "1 35931U 09051A   25356.55586242 -.00000090  00000+0 -35619-4 0  9992",
        "tle_line2": "2 35931  98.2217 356.1604 0015968  19.3059 340.8710 13.99622915854628"
      },
      "geometry": {
        "type": "Point",
        "coordinates": [
          177.6076259423738,
          7.532176548347704
        ]
      }
    },
    {
      "type": "Feature",
      "properties": {
        "norad_id": 35946,
        "name": "WORLDVIEW-2 (WV-2)",
        "group": "resource",
        "lat": -70.17365943414102,
        "lon": -136.54420207705326,
        "alt_km": 776.3679377974722,
        "timestamp": "2025-12-22T22:44:20.607472+00:00",
        "meta_object_name": "WORLDVIEW-2 (WV-2)",
        "meta_object_id": "2009-055A",
        "meta_epoch": "2025-12-22T13:13:09.485472",
        "meta_mean_motion": 14.37728183,
        "meta_eccentricity": 0.00048332,
        "meta_inclination": 98.4776,
        "meta_ra_of_asc_node": 67.5007,
        "meta_arg_of_pericenter": 46.6608,
        "meta_mean_anomaly": 313.4981,
        "meta_ephemeris_type": 0,
        "meta_classification_type": "U",
        "meta_norad_cat_id": 35946,
        "meta_element_set_no": 999,
        "meta_rev_at_epoch": 85026,
        "meta_bstar": 7.0055198e-05,
        "meta_mean_motion_dot": 1.67e-06,
        "meta_mean_motion_ddot": 0,
        "tle_line1": "1 35946U 09055A   25356.55080423  .00000167  00000+0  70055-4 0  9998",
        "tle_line2": "2 35946  98.4776  67.5007 0004833  46.6608 313.4981 14.37728183850267"
      },
      "geometry": {
        "type": "Point",
        "coordinates": [
          -136.54420207705326,
          -70.17365943414102
        ]
      }
    }
  ]
}